const DADOS_TESTE = {
  "status": true,
  "message": 200,
  "data": {
    "current_page": 1,
    "data": [
      {
        "id_localidade": "SBGL",
        "validade_inicial": "2025-10-13 03:00:00",
        "mens": "METAR SBGL 130300Z 23004KT 9999 FEW040 SCT100 25/22 Q1009=",
        "recebimento": "2025-10-13 02:54:13"
      },
      {
        "id_localidade": "SBGL",
        "validade_inicial": "2025-10-13 04:00:00",
        "mens": "METAR SBGL 130400Z 24010KT 9999 FEW040 SCT100 24/20 Q1009=",
        "recebimento": "2025-10-13 03:51:24"
      },
      {
        "id_localidade": "SBGL",
        "validade_inicial": "2025-10-13 05:00:00",
        "mens": "METAR SBGL 130500Z 35003KT 3000 BKN020 24/20 Q1009=",
        "recebimento": "2025-10-13 04:52:09"
      },
      {
        "id_localidade": "SBGL",
        "validade_inicial": "2025-10-13 06:00:00",
        "mens": "METAR SBGL 130600Z 13006KT 5000 OVC005 22/20 Q1008=",
        "recebimento": "2025-10-13 05:52:10"
      },
      {
        "id_localidade": "SBGL",
        "validade_inicial": "2025-10-13 07:00:00",
        "mens": "METAR SBGL 130700Z 15005KT CAVOK 22/20 Q1009=",
        "recebimento": "2025-10-13 06:52:19"
      },
      {
        "id_localidade": "SBGL",
        "validade_inicial": "2025-10-13 08:00:00",
        "mens": "METAR SBGL 130800Z 14003KT CAVOK 23/20 Q1009=",
        "recebimento": "2025-10-13 07:53:06"
      },
      {
        "id_localidade": "SBGL",
        "validade_inicial": "2025-10-13 09:00:00",
        "mens": "METAR SBGL 130900Z 01002KT 9999 FEW030 BKN100 22/20 Q1009=",
        "recebimento": "2025-10-13 08:53:08"
      },
      {
        "id_localidade": "SBGL",
        "validade_inicial": "2025-10-13 10:00:00",
        "mens": "METAR SBGL 131000Z 06004KT 9999 FEW030 BKN100 24/21 Q1009=",
        "recebimento": "2025-10-13 09:54:45"
      },
      {
        "id_localidade": "SBGL",
        "validade_inicial": "2025-10-13 11:00:00",
        "mens": "METAR SBGL 131100Z 14003KT 110V180 9999 FEW020 BKN100 25/21 Q1009=",
        "recebimento": "2025-10-13 10:57:19"
      },
      {
        "id_localidade": "SBGL",
        "validade_inicial": "2025-10-13 12:00:00",
        "mens": "METAR SBGL 131200Z 15006KT 9999 FEW020 SCT100 25/20 Q1009=",
        "recebimento": "2025-10-13 11:58:34"
      },
      {
        "id_localidade": "SBGL",
        "validade_inicial": "2025-10-13 13:00:00",
        "mens": "METAR SBGL 131300Z 12005KT 9999 FEW020 SCT100 27/20 Q1009=",
        "recebimento": "2025-10-13 12:57:15"
      },
      {
        "id_localidade": "SBGL",
        "validade_inicial": "2025-10-13 14:00:00",
        "mens": "METAR SBGL 131400Z 01004KT 310V060 9999 FEW020 SCT100 31/19 Q1008=",
        "recebimento": "2025-10-13 13:53:25"
      },
      {
        "id_localidade": "SBGL",
        "validade_inicial": "2025-10-13 15:00:00",
        "mens": "METAR SBGL 131500Z 33013KT 9999 FEW025 33/18 Q1007=",
        "recebimento": "2025-10-13 14:55:09"
      },
      {
        "id_localidade": "SBGL",
        "validade_inicial": "2025-10-13 16:00:00",
        "mens": "METAR SBGL 131600Z 32010KT 9999 FEW030 34/18 Q1007=",
        "recebimento": "2025-10-13 15:52:47"
      },
      {
        "id_localidade": "SBGL",
        "validade_inicial": "2025-10-13 17:00:00",
        "mens": "METAR SBGL 131700Z 02009KT 350V050 9999 FEW030 32/19 Q1006=",
        "recebimento": "2025-10-13 16:54:04"
      },
      {
        "id_localidade": "SBGL",
        "validade_inicial": "2025-10-13 18:00:00",
        "mens": "METAR SBGL 131800Z 02006KT 9999 FEW035 BKN100 31/20 Q1006=",
        "recebimento": "2025-10-13 17:56:52"
      },
      {
        "id_localidade": "SBGL",
        "validade_inicial": "2025-10-13 19:00:00",
        "mens": "METAR SBGL 131900Z 33006KT 300V020 9999 FEW035 BKN100 32/19 Q1007=",
        "recebimento": "2025-10-13 18:56:27"
      },
      {
        "id_localidade": "SBGL",
        "validade_inicial": "2025-10-13 20:00:00",
        "mens": "METAR SBGL 132000Z 02004KT 9999 -RA FEW035 BKN100 30/20 Q1007=",
        "recebimento": "2025-10-13 19:59:32"
      },
      {
        "id_localidade": "SBGL",
        "validade_inicial": "2025-10-13 21:00:00",
        "mens": "METAR SBGL 132100Z VRB02KT 9999 FEW035 BKN100 29/21 Q1008=",
        "recebimento": "2025-10-13 20:56:57"
      },
      {
        "id_localidade": "SBGL",
        "validade_inicial": "2025-10-13 22:00:00",
        "mens": "METAR SBGL 132200Z VRB02KT 9999 FEW035 BKN100 28/20 Q1008=",
        "recebimento": "2025-10-13 21:56:40"
      },
      {
        "id_localidade": "SBGL",
        "validade_inicial": "2025-10-13 23:00:00",
        "mens": "METAR SBGL 132300Z 07003KT 9999 FEW030 BKN100 27/20 Q1009=",
        "recebimento": "2025-10-13 23:01:24"
      },
      {
        "id_localidade": "SBGL",
        "validade_inicial": "2025-10-14 00:00:00",
        "mens": "METAR SBGL 140000Z 25006KT 9999 FEW030 BKN100 28/19 Q1009=",
        "recebimento": "2025-10-13 23:59:17"
      },
      {
        "id_localidade": "SBGL",
        "validade_inicial": "2025-10-14 01:00:00",
        "mens": "METAR SBGL 140100Z 02003KT 9999 FEW030 BKN100 26/19 Q1010=",
        "recebimento": "2025-10-14 00:50:43"
      },
      {
        "id_localidade": "SBGL",
        "validade_inicial": "2025-10-14 02:00:00",
        "mens": "METAR SBGL 140200Z 06004KT 9999 FEW030 BKN066 BKN100 26/20 Q1009=",
        "recebimento": "2025-10-14 02:00:08"
      },
      {
        "id_localidade": "SBGL",
        "validade_inicial": "2025-10-14 03:00:00",
        "mens": "METAR SBGL 140300Z 20002KT 9999 FEW030 SCT066 BKN100 25/20 Q1009=",
        "recebimento": "2025-10-14 03:01:30"
      },
      {
        "id_localidade": "SBGR",
        "validade_inicial": "2025-10-13 03:00:00",
        "mens": "METAR SBGR 130300Z 32006KT CAVOK 21/17 Q1015=",
        "recebimento": "2025-10-13 02:57:22"
      },
      {
        "id_localidade": "SBGR",
        "validade_inicial": "2025-10-13 04:00:00",
        "mens": "METAR SBGR 130400Z 29004KT 9000 -RA NSC 21/17 Q1015=",
        "recebimento": "2025-10-13 03:57:56"
      },
      {
        "id_localidade": "SBGR",
        "validade_inicial": "2025-10-13 05:00:00",
        "mens": "METAR SBGR 130500Z 02003KT 9000 -RA NSC 20/17 Q1013=",
        "recebimento": "2025-10-13 04:56:09"
      },
      {
        "id_localidade": "SBGR",
        "validade_inicial": "2025-10-13 06:00:00",
        "mens": "METAR SBGR 130600Z 36008KT CAVOK 20/16 Q1012=",
        "recebimento": "2025-10-13 05:57:09"
      },
      {
        "id_localidade": "SBGR",
        "validade_inicial": "2025-10-13 07:00:00",
        "mens": "METAR SBGR 130700Z 04009KT CAVOK 19/16 Q1011=",
        "recebimento": "2025-10-13 06:55:29"
      },
      {
        "id_localidade": "SBGR",
        "validade_inicial": "2025-10-13 08:00:00",
        "mens": "METAR SBGR 130800Z 05005KT CAVOK 18/16 Q1011=",
        "recebimento": "2025-10-13 07:56:22"
      },
      {
        "id_localidade": "SBGR",
        "validade_inicial": "2025-10-13 09:00:00",
        "mens": "METAR SBGR 130900Z 01007KT CAVOK 20/16 Q1012=",
        "recebimento": "2025-10-13 08:56:08"
      },
      {
        "id_localidade": "SBGR",
        "validade_inicial": "2025-10-13 10:00:00",
        "mens": "METAR SBGR 131000Z 31005KT CAVOK 23/17 Q1013=",
        "recebimento": "2025-10-13 09:55:37"
      },
      {
        "id_localidade": "SBGR",
        "validade_inicial": "2025-10-13 11:00:00",
        "mens": "METAR SBGR 131100Z 32006KT CAVOK 24/16 Q1013=",
        "recebimento": "2025-10-13 10:56:31"
      },
      {
        "id_localidade": "SBGR",
        "validade_inicial": "2025-10-13 12:00:00",
        "mens": "METAR SBGR 131200Z 35003KT CAVOK 25/17 Q1013=",
        "recebimento": "2025-10-13 11:59:18"
      },
      {
        "id_localidade": "SBGR",
        "validade_inicial": "2025-10-13 13:00:00",
        "mens": "METAR SBGR 131300Z 33014KT 9999 SCT040 SCT100 27/17 Q1013=",
        "recebimento": "2025-10-13 12:58:00"
      },
      {
        "id_localidade": "SBGR",
        "validade_inicial": "2025-10-13 14:00:00",
        "mens": "METAR SBGR 131400Z 32015KT 9999 BKN040 SCT100 27/16 Q1013=",
        "recebimento": "2025-10-13 13:59:54"
      },
      {
        "id_localidade": "SBGR",
        "validade_inicial": "2025-10-13 15:00:00",
        "mens": "METAR SBGR 131500Z 31016KT 9999 BKN040 SCT100 26/17 Q1013=",
        "recebimento": "2025-10-13 14:59:49"
      },
      {
        "id_localidade": "SBGR",
        "validade_inicial": "2025-10-13 16:00:00",
        "mens": "METAR SBGR 131600Z 28012KT 9999 SCT035 BKN100 25/17 Q1013=",
        "recebimento": "2025-10-13 16:01:34"
      },
      {
        "id_localidade": "SBGR",
        "validade_inicial": "2025-10-13 16:30:00",
        "mens": "SPECI SBGR 131630Z 29017G28KT 9999 SCT035 BKN100 25/18 Q1013=",
        "recebimento": "2025-10-13 16:36:43"
      },
      {
        "id_localidade": "SBGR",
        "validade_inicial": "2025-10-13 17:00:00",
        "mens": "METAR SBGR 131700Z 29013KT 9999 VCSH SCT025 FEW040TCU 24/18 Q1013=",
        "recebimento": "2025-10-13 16:58:32"
      },
      {
        "id_localidade": "SBGR",
        "validade_inicial": "2025-10-13 18:00:00",
        "mens": "METAR SBGR 131800Z 30013KT 9999 SCT025 23/18 Q1013=",
        "recebimento": "2025-10-13 17:57:15"
      },
      {
        "id_localidade": "SBGR",
        "validade_inicial": "2025-10-13 19:00:00",
        "mens": "METAR SBGR 131900Z 31008G18KT 9999 FEW020 22/18 Q1012=",
        "recebimento": "2025-10-13 18:59:07"
      },
      {
        "id_localidade": "SBGR",
        "validade_inicial": "2025-10-13 20:00:00",
        "mens": "METAR SBGR 132000Z 31007G17KT CAVOK 22/16 Q1012=",
        "recebimento": "2025-10-13 19:57:43"
      },
      {
        "id_localidade": "SBGR",
        "validade_inicial": "2025-10-13 21:00:00",
        "mens": "METAR SBGR 132100Z 32012KT CAVOK 22/16 Q1012=",
        "recebimento": "2025-10-13 20:57:20"
      },
      {
        "id_localidade": "SBGR",
        "validade_inicial": "2025-10-13 22:00:00",
        "mens": "METAR SBGR 132200Z 33012KT CAVOK 21/16 Q1013=",
        "recebimento": "2025-10-13 21:57:09"
      },
      {
        "id_localidade": "SBGR",
        "validade_inicial": "2025-10-13 23:00:00",
        "mens": "METAR SBGR 132300Z 35009KT 9999 BKN023 21/16 Q1013=",
        "recebimento": "2025-10-13 22:56:34"
      },
      {
        "id_localidade": "SBGR",
        "validade_inicial": "2025-10-14 00:00:00",
        "mens": "METAR SBGR 140000Z 02004KT 9999 BKN023 21/17 Q1014=",
        "recebimento": "2025-10-13 23:58:43"
      },
      {
        "id_localidade": "SBGR",
        "validade_inicial": "2025-10-14 01:00:00",
        "mens": "METAR SBGR 140100Z 34006KT 9999 SCT025 21/17 Q1014=",
        "recebimento": "2025-10-14 00:58:43"
      },
      {
        "id_localidade": "SBGR",
        "validade_inicial": "2025-10-14 02:00:00",
        "mens": "METAR SBGR 140200Z 36002KT 9999 SCT025 21/17 Q1014=",
        "recebimento": "2025-10-14 01:59:14"
      },
      {
        "id_localidade": "SBGR",
        "validade_inicial": "2025-10-14 03:00:00",
        "mens": "METAR SBGR 140300Z 00000KT 9999 SCT020 20/17 Q1014=",
        "recebimento": "2025-10-14 02:59:44"
      },
      {
        "id_localidade": "SBRJ",
        "validade_inicial": "2025-10-13 03:00:00",
        "mens": "METAR SBRJ 130300Z 21005KT 140V310 9999 FEW015 SCT035 OVC100 24/22 Q1008=",
        "recebimento": "2025-10-13 02:56:31"
      },
      {
        "id_localidade": "SBRJ",
        "validade_inicial": "2025-10-13 04:00:00",
        "mens": "METAR SBRJ 130400Z 17007KT 9999 FEW008 SCT020 BKN100 22/21 Q1009=",
        "recebimento": "2025-10-13 03:56:46"
      },
      {
        "id_localidade": "SBRJ",
        "validade_inicial": "2025-10-13 05:00:00",
        "mens": "METAR SBRJ 130500Z 13010KT 8000 SCT008 BKN020 BKN080 21/20 Q1008=",
        "recebimento": "2025-10-13 04:57:03"
      },
      {
        "id_localidade": "SBRJ",
        "validade_inicial": "2025-10-13 06:00:00",
        "mens": "METAR SBRJ 130600Z 14008KT 8000 FEW008 OVC100 20/20 Q1008=",
        "recebimento": "2025-10-13 05:55:19"
      },
      {
        "id_localidade": "SBRJ",
        "validade_inicial": "2025-10-13 07:00:00",
        "mens": "METAR SBRJ 130700Z 17007KT 9999 FEW008 BKN100 21/20 Q1008=",
        "recebimento": "2025-10-13 06:55:06"
      },
      {
        "id_localidade": "SBRJ",
        "validade_inicial": "2025-10-13 08:00:00",
        "mens": "METAR SBRJ 130800Z 18009KT 9999 FEW010 BKN090 22/21 Q1009=",
        "recebimento": "2025-10-13 07:55:22"
      },
      {
        "id_localidade": "SBRJ",
        "validade_inicial": "2025-10-13 09:00:00",
        "mens": "METAR SBRJ 130900Z 17006KT 9999 FEW010 BKN100 22/21 Q1009=",
        "recebimento": "2025-10-13 08:57:13"
      },
      {
        "id_localidade": "SBRJ",
        "validade_inicial": "2025-10-13 10:00:00",
        "mens": "METAR COR SBRJ 131000Z 14004KT 9999 FEW040 BKN100 21/20 Q1009=",
        "recebimento": "2025-10-13 09:58:28"
      },
      {
        "id_localidade": "SBRJ",
        "validade_inicial": "2025-10-13 11:00:00",
        "mens": "METAR SBRJ 131100Z 33005KT 9999 FEW040 BKN100 24/21 Q1009=",
        "recebimento": "2025-10-13 10:55:34"
      },
      {
        "id_localidade": "SBRJ",
        "validade_inicial": "2025-10-13 12:00:00",
        "mens": "METAR SBRJ 131200Z 32008KT 9999 FEW040 SCT100 25/22 Q1009=",
        "recebimento": "2025-10-13 11:55:33"
      },
      {
        "id_localidade": "SBRJ",
        "validade_inicial": "2025-10-13 13:00:00",
        "mens": "METAR SBRJ 131300Z 34007KT 9999 FEW030 BKN100 27/21 Q1008=",
        "recebimento": "2025-10-13 12:55:39"
      },
      {
        "id_localidade": "SBRJ",
        "validade_inicial": "2025-10-13 14:00:00",
        "mens": "METAR SBRJ 131400Z 33004KT 290V010 9999 FEW030 SCT100 28/21 Q1007=",
        "recebimento": "2025-10-13 13:56:42"
      },
      {
        "id_localidade": "SBRJ",
        "validade_inicial": "2025-10-13 15:00:00",
        "mens": "METAR SBRJ 131500Z 33008KT 9999 FEW030 SCT100 31/20 Q1007=",
        "recebimento": "2025-10-13 14:57:46"
      },
      {
        "id_localidade": "SBRJ",
        "validade_inicial": "2025-10-13 16:00:00",
        "mens": "METAR SBRJ 131600Z 35013KT 9999 FEW030 30/21 Q1006=",
        "recebimento": "2025-10-13 15:55:23"
      },
      {
        "id_localidade": "SBRJ",
        "validade_inicial": "2025-10-13 17:00:00",
        "mens": "METAR SBRJ 131700Z 35017KT 9999 FEW030 29/21 Q1006=",
        "recebimento": "2025-10-13 16:55:25"
      },
      {
        "id_localidade": "SBRJ",
        "validade_inicial": "2025-10-13 18:00:00",
        "mens": "METAR SBRJ 131800Z 34011KT 9999 SCT030 BKN100 30/20 Q1006=",
        "recebimento": "2025-10-13 17:58:22"
      },
      {
        "id_localidade": "SBRJ",
        "validade_inicial": "2025-10-13 19:00:00",
        "mens": "METAR SBRJ 131900Z 35008KT 9999 SCT035 BKN100 28/22 Q1006=",
        "recebimento": "2025-10-13 18:56:25"
      },
      {
        "id_localidade": "SBRJ",
        "validade_inicial": "2025-10-13 20:00:00",
        "mens": "METAR SBRJ 132000Z 32007KT 9999 SCT035 BKN100 29/20 Q1007=",
        "recebimento": "2025-10-13 19:56:18"
      },
      {
        "id_localidade": "SBRJ",
        "validade_inicial": "2025-10-13 21:00:00",
        "mens": "METAR SBRJ 132100Z 31006KT 9999 SCT035 BKN100 29/20 Q1007=",
        "recebimento": "2025-10-13 20:55:12"
      },
      {
        "id_localidade": "SBRJ",
        "validade_inicial": "2025-10-13 22:00:00",
        "mens": "METAR SBRJ 132200Z 30005KT 9999 SCT035 BKN090 29/20 Q1008=",
        "recebimento": "2025-10-13 21:55:11"
      },
      {
        "id_localidade": "SBRJ",
        "validade_inicial": "2025-10-13 23:00:00",
        "mens": "METAR SBRJ 132300Z 12007KT 9999 SCT035 BKN090 24/20 Q1008=",
        "recebimento": "2025-10-13 22:55:05"
      },
      {
        "id_localidade": "SBRJ",
        "validade_inicial": "2025-10-14 00:00:00",
        "mens": "METAR SBRJ 140000Z 17009KT 9999 SCT040 BKN100 24/20 Q1009=",
        "recebimento": "2025-10-13 23:57:44"
      },
      {
        "id_localidade": "SBRJ",
        "validade_inicial": "2025-10-14 01:00:00",
        "mens": "METAR SBRJ 140100Z 16005KT 9999 SCT040 BKN100 24/19 Q1009=",
        "recebimento": "2025-10-14 00:55:05"
      },
      {
        "id_localidade": "SBRJ",
        "validade_inicial": "2025-10-14 02:00:00",
        "mens": "METAR SBRJ 140200Z 16009KT 9999 SCT040 BKN100 24/19 Q1009=",
        "recebimento": "2025-10-14 01:55:35"
      },
      {
        "id_localidade": "SBRJ",
        "validade_inicial": "2025-10-14 03:00:00",
        "mens": "METAR SBRJ 140300Z 16004KT 9999 -RA SCT030 BKN100 24/20 Q1009=",
        "recebimento": "2025-10-14 02:55:11"
      },
      {
        "id_localidade": "SBSP",
        "validade_inicial": "2025-10-13 03:00:00",
        "mens": "METAR SBSP 130300Z AUTO 32005KT 9999 -RA NCD 21/17 Q1015=",
        "recebimento": "2025-10-13 03:01:53"
      },
      {
        "id_localidade": "SBSP",
        "validade_inicial": "2025-10-13 04:00:00",
        "mens": "METAR SBSP 130400Z AUTO 33008KT CAVOK 20/16 Q1015=",
        "recebimento": "2025-10-13 04:02:51"
      },
      {
        "id_localidade": "SBSP",
        "validade_inicial": "2025-10-13 05:00:00",
        "mens": "METAR SBSP 130500Z AUTO 03007KT 9999 -RA FEW044 19/17 Q1013=",
        "recebimento": "2025-10-13 05:01:52"
      },
      {
        "id_localidade": "SBSP",
        "validade_inicial": "2025-10-13 06:00:00",
        "mens": "METAR SBSP 130600Z AUTO 36006KT CAVOK 19/17 Q1012=",
        "recebimento": "2025-10-13 06:01:52"
      },
      {
        "id_localidade": "SBSP",
        "validade_inicial": "2025-10-13 07:00:00",
        "mens": "METAR SBSP 130700Z AUTO 33006KT CAVOK 19/17 Q1011=",
        "recebimento": "2025-10-13 07:01:52"
      },
      {
        "id_localidade": "SBSP",
        "validade_inicial": "2025-10-13 08:00:00",
        "mens": "METAR SBSP 130800Z AUTO 33008KT CAVOK 19/16 Q1011=",
        "recebimento": "2025-10-13 08:01:53"
      },
      {
        "id_localidade": "SBSP",
        "validade_inicial": "2025-10-13 09:00:00",
        "mens": "METAR SBSP 130900Z 34013KT CAVOK 20/16 Q1013=",
        "recebimento": "2025-10-13 09:00:45"
      },
      {
        "id_localidade": "SBSP",
        "validade_inicial": "2025-10-13 10:00:00",
        "mens": "METAR SBSP 131000Z 35012KT CAVOK 21/16 Q1013=",
        "recebimento": "2025-10-13 09:59:18"
      },
      {
        "id_localidade": "SBSP",
        "validade_inicial": "2025-10-13 11:00:00",
        "mens": "METAR SBSP 131100Z 34016G27KT CAVOK 22/17 Q1013=",
        "recebimento": "2025-10-13 10:59:50"
      },
      {
        "id_localidade": "SBSP",
        "validade_inicial": "2025-10-13 12:00:00",
        "mens": "METAR SBSP 131200Z 34018G28KT 300V020 CAVOK 24/17 Q1014=",
        "recebimento": "2025-10-13 11:53:44"
      },
      {
        "id_localidade": "SBSP",
        "validade_inicial": "2025-10-13 13:00:00",
        "mens": "METAR SBSP 131300Z 33018KT 9999 FEW033 26/17 Q1014=",
        "recebimento": "2025-10-13 13:00:23"
      },
      {
        "id_localidade": "SBSP",
        "validade_inicial": "2025-10-13 14:00:00",
        "mens": "METAR SBSP 131400Z 33007KT 9999 BKN040 FEW050TCU 25/16 Q1014=",
        "recebimento": "2025-10-13 13:58:51"
      },
      {
        "id_localidade": "SBSP",
        "validade_inicial": "2025-10-13 15:00:00",
        "mens": "METAR SBSP 131500Z 34013G25KT 300V020 9999 SCT033 26/17 Q1013=",
        "recebimento": "2025-10-13 14:55:39"
      },
      {
        "id_localidade": "SBSP",
        "validade_inicial": "2025-10-13 16:00:00",
        "mens": "METAR SBSP 131600Z 31013KT 9999 SCT033 25/17 Q1013=",
        "recebimento": "2025-10-13 15:57:07"
      },
      {
        "id_localidade": "SBSP",
        "validade_inicial": "2025-10-13 17:00:00",
        "mens": "METAR SBSP 131700Z 33018G28KT 9999 SCT033 23/17 Q1013=",
        "recebimento": "2025-10-13 17:02:24"
      },
      {
        "id_localidade": "SBSP",
        "validade_inicial": "2025-10-13 18:00:00",
        "mens": "METAR SBSP 131800Z 33020G31KT 9999 -RA SCT033 21/18 Q1012=",
        "recebimento": "2025-10-13 17:55:18"
      },
      {
        "id_localidade": "SBSP",
        "validade_inicial": "2025-10-13 19:00:00",
        "mens": "METAR SBSP 131900Z 32014KT 9999 SCT017 21/18 Q1012=",
        "recebimento": "2025-10-13 19:02:08"
      },
      {
        "id_localidade": "SBSP",
        "validade_inicial": "2025-10-13 20:00:00",
        "mens": "METAR SBSP 132000Z 34015KT CAVOK 22/17 Q1012=",
        "recebimento": "2025-10-13 20:01:40"
      },
      {
        "id_localidade": "SBSP",
        "validade_inicial": "2025-10-13 21:00:00",
        "mens": "METAR SBSP 132100Z 33014KT CAVOK 22/16 Q1012=",
        "recebimento": "2025-10-13 21:01:37"
      },
      {
        "id_localidade": "SBSP",
        "validade_inicial": "2025-10-13 22:00:00",
        "mens": "METAR SBSP 132200Z 33009KT CAVOK 21/17 Q1013=",
        "recebimento": "2025-10-13 21:58:25"
      },
      {
        "id_localidade": "SBSP",
        "validade_inicial": "2025-10-13 23:00:00",
        "mens": "METAR SBSP 132300Z 35008KT 9999 BKN019 21/17 Q1014=",
        "recebimento": "2025-10-13 23:02:36"
      },
      {
        "id_localidade": "SBSP",
        "validade_inicial": "2025-10-14 00:00:00",
        "mens": "METAR SBSP 140000Z 35010KT 9999 BKN015 20/17 Q1015=",
        "recebimento": "2025-10-13 23:53:46"
      },
      {
        "id_localidade": "SBSP",
        "validade_inicial": "2025-10-14 01:00:00",
        "mens": "METAR SBSP 140100Z 34008KT 9999 BKN023 20/17 Q1015=",
        "recebimento": "2025-10-14 01:02:37"
      },
      {
        "id_localidade": "SBSP",
        "validade_inicial": "2025-10-14 02:00:00",
        "mens": "METAR SBSP 140200Z 34010KT 9999 BKN023 20/17 Q1015=",
        "recebimento": "2025-10-14 01:59:07"
      },
      {
        "id_localidade": "SBSP",
        "validade_inicial": "2025-10-14 02:01:00",
        "mens": "SPECI SBSP 140201Z 34011KT 9999 BKN023 20/17 Q1014=",
        "recebimento": "2025-10-14 02:03:41"
      },
      {
        "id_localidade": "SBSP",
        "validade_inicial": "2025-10-14 03:00:00",
        "mens": "METAR SBSP 140300Z AUTO 33008KT 300V010 9999 BKN024 20/17 Q1015=",
        "recebimento": "2025-10-14 03:01:54"
      }
    ],
    "first_page_url": "/?page_tam=150&data_ini=2025101303&data_fim=2025101403&page=1",
    "from": 1,
    "last_page": 1,
    "last_page_url": "/?page_tam=150&data_ini=2025101303&data_fim=2025101403&page=1",
    "next_page_url": null,
    "path": "/",
    "per_page": 150,
    "prev_page_url": null,
    "to": 102,
    "total": 102
  }
}